<?xml version="1.0" encoding="UTF-8"?>
<ndm xmlns:xsi="http://www.w3.org/2001/XMLSchema-instance" xsi:noNamespaceSchemaLocation="https://sanaregistry.org/r/ndmxml_unqualified/ndmxml-2.0.0-master-2.0.xsd">
<omm id="CCSDS_OMM_VERS" version="2.0">
<header><CREATION_DATE/><ORIGINATOR/></header><body><segment><metadata><OBJECT_NAME>COSMOS 2251 DEB</OBJECT_NAME><OBJECT_ID>1993-036AMM</OBJECT_ID><CENTER_NAME>EARTH</CENTER_NAME><REF_FRAME>TEME</REF_FRAME><TIME_SYSTEM>UTC</TIME_SYSTEM><MEAN_ELEMENT_THEORY>SGP4</MEAN_ELEMENT_THEORY></metadata><data><meanElements><EPOCH>2025-11-20T06:34:27.731712</EPOCH><MEAN_MOTION>14.87024897</MEAN_MOTION><ECCENTRICITY>.0031824</ECCENTRICITY><INCLINATION>73.8041</INCLINATION><RA_OF_ASC_NODE>151.9343</RA_OF_ASC_NODE><ARG_OF_PERICENTER>263.2770</ARG_OF_PERICENTER><MEAN_ANOMALY>96.4787</MEAN_ANOMALY></meanElements><tleParameters><EPHEMERIS_TYPE>0</EPHEMERIS_TYPE><CLASSIFICATION_TYPE>U</CLASSIFICATION_TYPE><NORAD_CAT_ID>35594</NORAD_CAT_ID><ELEMENT_SET_NO>999</ELEMENT_SET_NO><REV_AT_EPOCH>87851</REV_AT_EPOCH><BSTAR>.13097E-2</BSTAR><MEAN_MOTION_DOT>.11829E-3</MEAN_MOTION_DOT><MEAN_MOTION_DDOT>0</MEAN_MOTION_DDOT></tleParameters></data></segment></body></omm>
<omm id="CCSDS_OMM_VERS" version="2.0">
<header><CREATION_DATE/><ORIGINATOR/></header><body><segment><metadata><OBJECT_NAME>COSMOS 2251 DEB</OBJECT_NAME><OBJECT_ID>1993-036AMV</OBJECT_ID><CENTER_NAME>EARTH</CENTER_NAME><REF_FRAME>TEME</REF_FRAME><TIME_SYSTEM>UTC</TIME_SYSTEM><MEAN_ELEMENT_THEORY>SGP4</MEAN_ELEMENT_THEORY></metadata><data><meanElements><EPOCH>2025-11-20T10:38:12.128352</EPOCH><MEAN_MOTION>15.34025251</MEAN_MOTION><ECCENTRICITY>.00918369</ECCENTRICITY><INCLINATION>73.9968</INCLINATION><RA_OF_ASC_NODE>230.1234</RA_OF_ASC_NODE><ARG_OF_PERICENTER>301.1770</ARG_OF_PERICENTER><MEAN_ANOMALY>178.1077</MEAN_ANOMALY></meanElements><tleParameters><EPHEMERIS_TYPE>0</EPHEMERIS_TYPE><CLASSIFICATION_TYPE>U</CLASSIFICATION_TYPE><NORAD_CAT_ID>35602</NORAD_CAT_ID><ELEMENT_SET_NO>999</ELEMENT_SET_NO><REV_AT_EPOCH>89749</REV_AT_EPOCH><BSTAR>.54476564E-3</BSTAR><MEAN_MOTION_DOT>.20575E-3</MEAN_MOTION_DOT><MEAN_MOTION_DDOT>0</MEAN_MOTION_DDOT></tleParameters></data></segment></body></omm>
<omm id="CCSDS_OMM_VERS" version="2.0">
<header><CREATION_DATE/><ORIGINATOR/></header><body><segment><metadata><OBJECT_NAME>COSMOS 2251 DEB</OBJECT_NAME><OBJECT_ID>1993-036AMY</OBJECT_ID><CENTER_NAME>EARTH</CENTER_NAME><REF_FRAME>TEME</REF_FRAME><TIME_SYSTEM>UTC</TIME_SYSTEM><MEAN_ELEMENT_THEORY>SGP4</MEAN_ELEMENT_THEORY></metadata><data><meanElements><EPOCH>2025-11-20T11:02:18.970656</EPOCH><MEAN_MOTION>15.24773220</MEAN_MOTION><ECCENTRICITY>.00342229</ECCENTRICITY><INCLINATION>73.8738</INCLINATION><RA_OF_ASC_NODE>24.4307</RA_OF_ASC_NODE><ARG_OF_PERICENTER>322.8271</ARG_OF_PERICENTER><MEAN_ANOMALY>37.0558</MEAN_ANOMALY></meanElements><tleParameters><EPHEMERIS_TYPE>0</EPHEMERIS_TYPE><CLASSIFICATION_TYPE>U</CLASSIFICATION_TYPE><NORAD_CAT_ID>35605</NORAD_CAT_ID><ELEMENT_SET_NO>999</ELEMENT_SET_NO><REV_AT_EPOCH>65631</REV_AT_EPOCH><BSTAR>.59800462E-2</BSTAR><MEAN_MOTION_DOT>.153781E-2</MEAN_MOTION_DOT><MEAN_MOTION_DDOT>0</MEAN_MOTION_DDOT></tleParameters></data></segment></body></omm>
<omm id="CCSDS_OMM_VERS" version="2.0">
<header><CREATION_DATE/><ORIGINATOR/></header><body><segment><metadata><OBJECT_NAME>COSMOS 2251 DEB</OBJECT_NAME><OBJECT_ID>1993-036AMZ</OBJECT_ID><CENTER_NAME>EARTH</CENTER_NAME><REF_FRAME>TEME</REF_FRAME><TIME_SYSTEM>UTC</TIME_SYSTEM><MEAN_ELEMENT_THEORY>SGP4</MEAN_ELEMENT_THEORY></metadata><data><meanElements><EPOCH>2025-11-20T11:15:52.622784</EPOCH><MEAN_MOTION>13.41139437</MEAN_MOTION><ECCENTRICITY>.04574519</ECCENTRICITY><INCLINATION>73.8125</INCLINATION><RA_OF_ASC_NODE>46.2924</RA_OF_ASC_NODE><ARG_OF_PERICENTER>255.2383</ARG_OF_PERICENTER><MEAN_ANOMALY>99.7619</MEAN_ANOMALY></meanElements><tleParameters><EPHEMERIS_TYPE>0</EPHEMERIS_TYPE><CLASSIFICATION_TYPE>U</CLASSIFICATION_TYPE><NORAD_CAT_ID>35606</NORAD_CAT_ID><ELEMENT_SET_NO>999</ELEMENT_SET_NO><REV_AT_EPOCH>60741</REV_AT_EPOCH><BSTAR>.17330732E-2</BSTAR><MEAN_MOTION_DOT>.1755E-4</MEAN_MOTION_DOT><MEAN_MOTION_DDOT>0</MEAN_MOTION_DDOT></tleParameters></data></segment></body></omm>
<omm id="CCSDS_OMM_VERS" version="2.0">
<header><CREATION_DATE/><ORIGINATOR/></header><body><segment><metadata><OBJECT_NAME>COSMOS 2251 DEB</OBJECT_NAME><OBJECT_ID>1993-036ANE</OBJECT_ID><CENTER_NAME>EARTH</CENTER_NAME><REF_FRAME>TEME</REF_FRAME><TIME_SYSTEM>UTC</TIME_SYSTEM><MEAN_ELEMENT_THEORY>SGP4</MEAN_ELEMENT_THEORY></metadata><data><meanElements><EPOCH>2025-11-20T09:24:59.856480</EPOCH><MEAN_MOTION>14.72041621</MEAN_MOTION><ECCENTRICITY>.00231778</ECCENTRICITY><INCLINATION>74.0214</INCLINATION><RA_OF_ASC_NODE>222.8348</RA_OF_ASC_NODE><ARG_OF_PERICENTER>298.0683</ARG_OF_PERICENTER><MEAN_ANOMALY>61.8146</MEAN_ANOMALY></meanElements><tleParameters><EPHEMERIS_TYPE>0</EPHEMERIS_TYPE><CLASSIFICATION_TYPE>U</CLASSIFICATION_TYPE><NORAD_CAT_ID>35611</NORAD_CAT_ID><ELEMENT_SET_NO>999</ELEMENT_SET_NO><REV_AT_EPOCH>86961</REV_AT_EPOCH><BSTAR>.18164502E-2</BSTAR><MEAN_MOTION_DOT>.11449E-3</MEAN_MOTION_DOT><MEAN_MOTION_DDOT>0</MEAN_MOTION_DDOT></tleParameters></data></segment></body></omm>
<omm id="CCSDS_OMM_VERS" version="2.0">
<header><CREATION_DATE/><ORIGINATOR/></header><body><segment><metadata><OBJECT_NAME>COSMOS 2251 DEB</OBJECT_NAME><OBJECT_ID>1993-036ANH</OBJECT_ID><CENTER_NAME>EARTH</CENTER_NAME><REF_FRAME>TEME</REF_FRAME><TIME_SYSTEM>UTC</TIME_SYSTEM><MEAN_ELEMENT_THEORY>SGP4</MEAN_ELEMENT_THEORY></metadata><data><meanElements><EPOCH>2025-11-17T10:04:57.841824</EPOCH><MEAN_MOTION>14.66666200</MEAN_MOTION><ECCENTRICITY>.00775269</ECCENTRICITY><INCLINATION>73.9605</INCLINATION><RA_OF_ASC_NODE>16.5458</RA_OF_ASC_NODE><ARG_OF_PERICENTER>236.5165</ARG_OF_PERICENTER><MEAN_ANOMALY>122.8579</MEAN_ANOMALY></meanElements><tleParameters><EPHEMERIS_TYPE>0</EPHEMERIS_TYPE><CLASSIFICATION_TYPE>U</CLASSIFICATION_TYPE><NORAD_CAT_ID>35614</NORAD_CAT_ID><ELEMENT_SET_NO>999</ELEMENT_SET_NO><REV_AT_EPOCH>87358</REV_AT_EPOCH><BSTAR>.15838363E-2</BSTAR><MEAN_MOTION_DOT>.9193E-4</MEAN_MOTION_DOT><MEAN_MOTION_DDOT>0</MEAN_MOTION_DDOT></tleParameters></data></segment></body></omm>
<omm id="CCSDS_OMM_VERS" version="2.0">
<header><CREATION_DATE/><ORIGINATOR/></header><body><segment><metadata><OBJECT_NAME>COSMOS 2251 DEB</OBJECT_NAME><OBJECT_ID>1993-036ANL</OBJECT_ID><CENTER_NAME>EARTH</CENTER_NAME><REF_FRAME>TEME</REF_FRAME><TIME_SYSTEM>UTC</TIME_SYSTEM><MEAN_ELEMENT_THEORY>SGP4</MEAN_ELEMENT_THEORY></metadata><data><meanElements><EPOCH>2025-11-21T10:59:55.785120</EPOCH><MEAN_MOTION>14.45154236</MEAN_MOTION><ECCENTRICITY>.0068802</ECCENTRICITY><INCLINATION>73.9630</INCLINATION><RA_OF_ASC_NODE>127.5740</RA_OF_ASC_NODE><ARG_OF_PERICENTER>288.4017</ARG_OF_PERICENTER><MEAN_ANOMALY>70.9668</MEAN_ANOMALY></meanElements><tleParameters><EPHEMERIS_TYPE>0</EPHEMERIS_TYPE><CLASSIFICATION_TYPE>U</CLASSIFICATION_TYPE><NORAD_CAT_ID>35645</NORAD_CAT_ID><ELEMENT_SET_NO>999</ELEMENT_SET_NO><REV_AT_EPOCH>86464</REV_AT_EPOCH><BSTAR>.17204E-2</BSTAR><MEAN_MOTION_DOT>.6177E-4</MEAN_MOTION_DOT><MEAN_MOTION_DDOT>0</MEAN_MOTION_DDOT></tleParameters></data></segment></body></omm>
<omm id="CCSDS_OMM_VERS" version="2.0">
<header><CREATION_DATE/><ORIGINATOR/></header><body><segment><metadata><OBJECT_NAME>COSMOS 2251 DEB</OBJECT_NAME><OBJECT_ID>1993-036ANM</OBJECT_ID><CENTER_NAME>EARTH</CENTER_NAME><REF_FRAME>TEME</REF_FRAME><TIME_SYSTEM>UTC</TIME_SYSTEM><MEAN_ELEMENT_THEORY>SGP4</MEAN_ELEMENT_THEORY></metadata><data><meanElements><EPOCH>2025-11-17T01:56:27.255264</EPOCH><MEAN_MOTION>13.40734854</MEAN_MOTION><ECCENTRICITY>.04583894</ECCENTRICITY><INCLINATION>73.8705</INCLINATION><RA_OF_ASC_NODE>96.7404</RA_OF_ASC_NODE><ARG_OF_PERICENTER>211.0622</ARG_OF_PERICENTER><MEAN_ANOMALY>273.6027</MEAN_ANOMALY></meanElements><tleParameters><EPHEMERIS_TYPE>0</EPHEMERIS_TYPE><CLASSIFICATION_TYPE>U</CLASSIFICATION_TYPE><NORAD_CAT_ID>35646</NORAD_CAT_ID><ELEMENT_SET_NO>999</ELEMENT_SET_NO><REV_AT_EPOCH>81514</REV_AT_EPOCH><BSTAR>.22807494E-2</BSTAR><MEAN_MOTION_DOT>.2308E-4</MEAN_MOTION_DOT><MEAN_MOTION_DDOT>0</MEAN_MOTION_DDOT></tleParameters></data></segment></body></omm>

</ndm>
