COSMOS 2251 DEB         
1 35594U 93036AMM 25324.27393208  .00011829  00000+0  13097-2 0  9999
2 35594  73.8041 151.9343 0031824 263.2770  96.4787 14.87024897878512
COSMOS 2251 DEB         
1 35602U 93036AMV 25324.44319593  .00020575  00000+0  54477-3 0  9999
2 35602  73.9968 230.1234 0091836 301.1770 178.1077 15.34025251897497
COSMOS 2251 DEB         
1 35605U 93036AMY 25324.45994179  .00153781  00000+0  59800-2 0  9992
2 35605  73.8738  24.4307 0034222 322.8271  37.0558 15.24773220656317
COSMOS 2251 DEB         
1 35606U 93036AMZ 25324.46935906  .00001755  00000+0  17331-2 0  9993
2 35606  73.8125  46.2924 0457451 255.2383  99.7619 13.41139437607414
COSMOS 2251 DEB         
1 35611U 93036ANE 25324.39235945  .00011449  00000+0  18165-2 0  9994
2 35611  74.0214 222.8348 0023177 298.0683  61.8146 14.72041621869615
COSMOS 2251 DEB         
1 35614U 93036ANH 25321.42011391  .00009193  00000+0  15838-2 0  9992
2 35614  73.9605  16.5458 0077526 236.5165 122.8579 14.66666200873587
COSMOS 2251 DEB         
1 35645U 93036ANL 25325.45828455  .00006177  00000+0  17204-2 0  9998
2 35645  73.9630 127.5740 0068802 288.4017  70.9668 14.45154236864642
COSMOS 2251 DEB         
1 35646U 93036ANM 25321.08087101  .00002308  00000+0  22807-2 0  9996
2 35646  73.8705  96.7404 0458389 211.0622 273.6027 13.40734854815142
